DELTA 2 R/B(1)          
1 20453U 90008B   25356.18135606  .00045731  00000+0  71322-3 0  9999
2 20453  35.6079 319.5298 0110837 264.1613  94.6476 15.45945386914095
COSMOS 2058             
1 20465U 90010A   25356.36337392  .00005174  00000+0  31175-3 0  9990
2 20465  82.4704 123.5650 0009187 235.1804 124.8562 15.10560852930568
SL-14 R/B               
1 20466U 90010B   25356.45839259  .00000448  00000+0  51452-4 0  9990
2 20466  82.5021 339.9189 0019456 189.8375 170.2462 14.83479994917036
SL-14 R/B               
1 20511U 90018B   25356.26688498  .00000491  00000+0  58814-4 0  9992
2 20511  82.5219 295.4602 0016177 352.5884   7.5089 14.82056118911111
HST                     
1 20580U 90037B   25356.26182927  .00006554  00000+0  22399-3 0  9999
2 20580  28.4658 207.6710 0002228 354.1662   5.8907 15.28167201761459
SL-16 R/B               
1 20625U 90046B   25355.72384766 -.00000247  00000+0 -10282-3 0  9997
2 20625  70.9993 101.6548 0012071  57.4695 302.7592 14.14998422837365
COSMOS 2084             
1 20663U 90055A   25356.40131862  .00002682  00000+0  20014-3 0  9999
2 20663  62.7893 239.0719 0030167 176.0092 184.1255 15.05072871924688
SL-6 R/B(2)             
1 20666U 90055D   25356.14768523  .00001944  00000+0  15769-3 0  9994
2 20666  62.7811 157.4476 0013749 315.2546  44.7443 15.03114929926537
SL-8 R/B                
1 20775U 90078B   25356.42664647  .00017008  00000+0  52557-3 0  9997
2 20775  82.9056 320.6361 0370496 273.2906  82.6000 14.86282238797814
SL-8 R/B                
1 21088U 91006B   25356.43501751  .00000126  00000+0  11089-3 0  9992
2 21088  82.9417 227.5013 0021204 250.9812 286.6719 13.77491911753432
OKEAN-3                 
1 21397U 91039A   25356.19519015  .00002712  00000+0  19313-3 0  9997
2 21397  82.5170  51.8958 0013553 229.8358 130.1682 15.04177527853384
COSMOS 2151             
1 21422U 91042A   25356.56471587  .00001564  00000+0  12448-3 0  9998
2 21422  82.4963 158.0347 0011782 325.3477  34.6977 14.99721442851635
